STARLINK-4778           
1 53836U 22114U   26068.85502752 -.00003218  00000+0 -18423-3 0  9997
2 53836  53.2188 293.5790 0001306  85.4785 274.6356 15.08832122192991
LEMUR-2-ESPERANZA       
1 63352U 25061B   26068.87489603  .00006090  00000+0  34973-3 0  9993
2 63352  97.5568  45.1407 0016949 244.8770 115.0702 15.12770807 52576
